NORAD_CAT_ID,OBJECT_NAME,OBJECT_TYPE,EPOCH,MEAN_MOTION,ECCENTRICITY,INCLINATION,RA_OF_ASC_NODE,ARG_OF_PERICENTER,MEAN_ANOMALY,BSTAR,MEAN_MOTION_DOT,MEAN_MOTION_DDOT,TLE_LINE0,TLE_LINE1,TLE_LINE2,SEMIMAJOR_AXIS,PERIOD,APOGEE,PERIGEE,DECAYED
56495.0,STARLINK-5529,PAYLOAD,2024-05-07 08:18:46,14.98344306,0.0002686,70.0004,357.0768,276.2463,83.839,-0.00027134,-3.33e-05,0.0,0 STARLINK-5529,1 56495U 23064AZ  24128.34637069 -.00003330  00000-0 -27134-3 0  9990,2 56495  70.0004 357.0768 0002686 276.2463  83.8390 14.98344306 55676,6950.149,96.106,573.88,570.147,0.0
56495.0,STARLINK-5529,PAYLOAD,2024-05-07 21:07:50,14.98347838,0.0002477,69.9995,355.7315,262.9075,97.1802,4.3568e-05,4.27e-06,0.0,0 STARLINK-5529,1 56495U 23064AZ  24128.88044140  .00000427  00000-0  43568-4 0  9993,2 56495  69.9995 355.7315 0002477 262.9075  97.1802 14.98347838 56113,6950.138,96.106,573.724,570.281,0.0
56495.0,STARLINK-5529,PAYLOAD,2024-05-08 00:20:07,14.98357726,0.0002384,69.9998,355.3964,263.7358,96.3529,-0.0005716,-6.911e-05,0.0,0 STARLINK-5529,1 56495U 23064AZ  24129.01396993 -.00006911  00000-0 -57160-3 0  9993,2 56495  69.9998 355.3964 0002384 263.7358  96.3529 14.98357726 56138,6950.107,96.105,573.629,570.315,0.0
56495.0,STARLINK-5529,PAYLOAD,2024-05-08 14:45:19,14.98332443,0.0002821,69.9996,353.8807,267.4139,92.6697,3.0641e-05,2.73e-06,0.0,0 STARLINK-5529,1 56495U 23064AZ  24129.61480950  .00000273  00000-0  30641-4 0  9995,2 56495  69.9996 353.8807 0002821 267.4139  92.6697 14.98332443 55862,6950.185,96.107,574.011,570.09,0.0
56495.0,STARLINK-5529,PAYLOAD,2024-05-08 21:09:51,14.98336576,0.000279,69.9997,353.2069,269.3364,90.7475,4.3456e-05,4.26e-06,0.0,0 STARLINK-5529,1 56495U 23064AZ  24129.88184590  .00000426  00000-0  43456-4 0  9993,2 56495  69.9997 353.2069 0002790 269.3364  90.7475 14.98336576 56262,6950.173,96.107,573.977,570.098,0.0
56495.0,STARLINK-5529,PAYLOAD,2024-05-08 22:45:59,14.98336545,0.0002734,69.9997,353.0389,265.7526,94.3321,5.8317e-05,6.03e-06,0.0,0 STARLINK-5529,1 56495U 23064AZ  24129.94860516  .00000603  00000-0  58317-4 0  9998,2 56495  69.9997 353.0389 0002734 265.7526  94.3321 14.98336545 55910,6950.173,96.107,573.938,570.137,0.0
56495.0,STARLINK-5529,PAYLOAD,2024-05-09 08:22:48,14.98331855,0.0002931,69.9995,352.0282,274.3612,85.7212,-1.2322e-05,-2.4e-06,0.0,0 STARLINK-5529,1 56495U 23064AZ  24130.34916886 -.00000240  00000-0 -12322-4 0  9991,2 56495  69.9995 352.0282 0002931 274.3612  85.7212 14.98331855 56339,6950.187,96.107,574.089,570.015,0.0
56495.0,STARLINK-5529,PAYLOAD,2024-05-09 14:47:20,14.98324789,0.0002888,69.9993,351.3545,272.046,88.0368,4.9557e-05,4.98e-06,0.0,0 STARLINK-5529,1 56495U 23064AZ  24130.61621177  .00000498  00000-0  49557-4 0  9990,2 56495  69.9993 351.3545 0002888 272.0460  88.0368 14.98324789 56019,6950.209,96.107,574.081,570.067,0.0
56495.0,STARLINK-5529,PAYLOAD,2024-05-09 19:35:45,14.98318587,0.0002915,69.9994,350.8486,271.1598,88.9227,0.00014941,1.69e-05,0.0,0 STARLINK-5529,1 56495U 23064AZ  24130.81649393  .00001690  00000-0  14941-3 0  9995,2 56495  69.9994 350.8486 0002915 271.1598  88.9227 14.98318587 56406,6950.228,96.108,574.119,570.067,0.0
56495.0,STARLINK-5529,PAYLOAD,2024-05-09 22:48:01,14.98325733,0.0002936,69.9995,350.5123,271.0023,89.08,1.3325e-05,6.6e-07,0.0,0 STARLINK-5529,1 56495U 23064AZ  24130.95001281  .00000066  00000-0  13325-4 0  9990,2 56495  69.9995 350.5123 0002936 271.0023  89.0800 14.98325733 56069,6950.206,96.107,574.112,570.031,0.0
56495.0,STARLINK-5529,PAYLOAD,2024-05-10 13:13:13,14.98333316,0.0002939,69.9997,348.9978,272.0389,88.0434,-7.839e-05,-1.028e-05,0.0,0 STARLINK-5529,1 56495U 23064AZ  24131.55085144 -.00001028  00000-0 -78390-4 0  9991,2 56495  69.9997 348.9978 0002939 272.0389  88.0434 14.98333316 56157,6950.183,96.107,574.09,570.005,0.0
56495.0,STARLINK-5529,PAYLOAD,2024-05-10 21:13:53,14.98331644,0.0002952,69.9996,348.1559,271.4922,88.5899,-8.4231e-05,-1.098e-05,0.0,0 STARLINK-5529,1 56495U 23064AZ  24131.88465204 -.00001098  00000-0 -84231-4 0  9994,2 56495  69.9996 348.1559 0002952 271.4922  88.5899 14.98331644 56202,6950.188,96.107,574.105,570.001,0.0
56495.0,STARLINK-5529,PAYLOAD,2024-05-11 00:26:09,14.98337333,0.0002886,69.9999,347.8193,270.8659,89.2169,7.2415e-06,-7e-08,0.0,0 STARLINK-5529,1 56495U 23064AZ  24132.01816624 -.00000007  00000-0  72415-5 0  9996,2 56495  69.9999 347.8193 0002886 270.8659  89.2169 14.98337333 56581,6950.17,96.107,574.041,570.029,0.0
56495.0,STARLINK-5529,PAYLOAD,2024-05-11 21:15:56,14.98298856,0.0002675,69.9996,345.6328,262.7813,97.3042,-0.00036313,-4.419e-05,0.0,0 STARLINK-5529,1 56495U 23064AZ  24132.88606712 -.00004419  00000-0 -36313-3 0  9993,2 56495  69.9996 345.6328 0002675 262.7813  97.3042 14.98298856 56713,6950.289,96.109,574.013,570.295,0.0
56495.0,STARLINK-5529,PAYLOAD,2024-05-11 22:52:04,14.98298782,0.0002644,69.9996,345.4644,262.332,97.7539,-0.00035833,-4.362e-05,0.0,0 STARLINK-5529,1 56495U 23064AZ  24132.95282805 -.00004362  00000-0 -35833-3 0  9997,2 56495  69.9996 345.4644 0002644 262.3320  97.7539 14.98298782 56361,6950.289,96.109,573.992,570.317,0.0
56495.0,STARLINK-5529,PAYLOAD,2024-05-12 06:52:46,14.98280114,0.0002617,69.9998,344.6214,272.7555,87.3305,-0.00054005,-6.522e-05,0.0,0 STARLINK-5529,1 56495U 23064AZ  24133.28665173 -.00006522  00000-0 -54005-3 0  9999,2 56495  69.9998 344.6214 0002617 272.7555  87.3305 14.98280114 56773,6950.347,96.11,574.031,570.393,0.0
56495.0,STARLINK-5529,PAYLOAD,2024-05-12 14:53:29,14.98256229,0.0002977,69.999,343.7793,269.5659,90.5159,-0.00074283,-8.928e-05,0.0,0 STARLINK-5529,1 56495U 23064AZ  24133.62048217 -.00008928  00000-0 -74283-3 0  9993,2 56495  69.9990 343.7793 0002977 269.5659  90.5159 14.98256229 56464,6950.421,96.112,574.355,570.217,0.0
56495.0,STARLINK-5529,PAYLOAD,2024-05-12 21:17:58,14.9831187,0.0002976,69.9999,343.1064,266.4682,93.6137,-7.4968e-05,-9.87e-06,0.0,0 STARLINK-5529,1 56495U 23064AZ  24133.88747838 -.00000987  00000-0 -74968-4 0  9994,2 56495  69.9999 343.1064 0002976 266.4682  93.6137 14.98311870 56867,6950.249,96.108,574.182,570.046,0.0
56495.0,STARLINK-5529,PAYLOAD,2024-05-13 13:19:17,14.98337775,0.000321,69.9992,341.4214,269.1696,90.9095,-0.00020039,-2.484e-05,0.0,0 STARLINK-5529,1 56495U 23064AZ  24134.55506796 -.00002484  00000-0 -20039-3 0  9998,2 56495  69.9992 341.4214 0003210 269.1696  90.9095 14.98337775 56961,6950.169,96.107,574.265,569.803,0.0
56495.0,STARLINK-5529,PAYLOAD,2024-05-13 19:43:49,14.98349342,0.0002927,69.9995,340.7493,266.9899,93.0925,-0.0002074,-2.568e-05,0.0,0 STARLINK-5529,1 56495U 23064AZ  24134.82210104 -.00002568  00000-0 -20740-3 0  9995,2 56495  69.9995 340.7493 0002927 266.9899  93.0925 14.98349342 57004,6950.133,96.106,574.032,569.964,0.0
56495.0,STARLINK-5529,PAYLOAD,2024-05-14 00:32:13,14.98350844,0.0003472,69.9985,340.2436,272.5786,87.4975,-0.00019627,-2.435e-05,0.0,0 STARLINK-5529,1 56495U 23064AZ  24135.02237860 -.00002435  00000-0 -19627-3 0  9991,2 56495  69.9985 340.2436 0003472 272.5786  87.4975 14.98350844 56672,6950.128,96.106,574.407,569.58,0.0
56495.0,STARLINK-5529,PAYLOAD,2024-05-14 21:21:59,14.98310999,0.0003444,69.9983,338.0552,272.2807,87.7958,0.00069238,8.174e-05,0.0,0 STARLINK-5529,1 56495U 23064AZ  24135.89027268  .00008174  00000-0  69238-3 0  9992,2 56495  69.9983 338.0552 0003444 272.2807  87.7958 14.98310999 57160,6950.252,96.108,574.51,569.723,0.0
56495.0,STARLINK-5529,PAYLOAD,2024-05-15 13:23:18,14.98355163,0.0003524,69.9988,336.3723,270.9643,89.1112,0.00015107,1.711e-05,0.0,0 STARLINK-5529,1 56495U 23064AZ  24136.55785257  .00001711  00000-0  15107-3 0  9991,2 56495  69.9988 336.3723 0003524 270.9643  89.1112 14.98355163 57269,6950.115,96.105,574.429,569.531,0.0
56495.0,STARLINK-5529,PAYLOAD,2024-05-15 14:59:26,14.98355614,0.0003525,69.999,336.2039,270.8471,89.2284,0.00015383,1.744e-05,0.0,0 STARLINK-5529,1 56495U 23064AZ  24136.62461103  .00001744  00000-0  15383-3 0  9992,2 56495  69.9990 336.2039 0003525 270.8471  89.2284 14.98355614 56913,6950.114,96.105,574.429,569.529,0.0
56495.0,STARLINK-5529,PAYLOAD,2024-05-15 21:23:57,14.98363631,0.0003489,69.9989,335.5298,269.5346,90.5413,0.00019231,2.204e-05,0.0,0 STARLINK-5529,1 56495U 23064AZ  24136.89163965  .00002204  00000-0  19231-3 0  9994,2 56495  69.9989 335.5298 0003489 269.5346  90.5413 14.98363631 57317,6950.089,96.105,574.379,569.529,0.0
56495.0,STARLINK-5529,PAYLOAD,2024-05-16 07:00:46,14.98353354,0.0003536,69.9989,334.5192,273.0064,87.069,1.0359e-05,3.1e-07,0.0,0 STARLINK-5529,1 56495U 23064AZ  24137.29220348  .00000031  00000-0  10359-4 0  9997,2 56495  69.9989 334.5192 0003536 273.0064  87.0690 14.98353354 57374,6950.121,96.106,574.443,569.528,0.0
56495.0,STARLINK-5529,PAYLOAD,2024-05-16 19:49:51,14.98347684,0.0002615,69.9986,333.1716,272.4494,87.6366,-8.3182e-05,-1.086e-05,0.0,0 STARLINK-5529,1 56495U 23064AZ  24137.82628592 -.00001086  00000-0 -83182-4 0  9996,2 56495  69.9986 333.1716 0002615 272.4494  87.6366 14.98347684 57459,6950.138,96.106,573.821,570.186,0.0
56495.0,STARLINK-5529,PAYLOAD,2024-05-16 23:02:07,14.98340539,0.000322,69.9984,332.8367,273.1405,86.9386,-0.00018687,-2.323e-05,0.0,0 STARLINK-5529,1 56495U 23064AZ  24137.95981144 -.00002323  00000-0 -18687-3 0  9997,2 56495  69.9984 332.8367 0003220 273.1405  86.9386 14.98340539 57476,6950.16,96.106,574.263,569.787,0.0
56495.0,STARLINK-5529,PAYLOAD,2024-05-17 21:28:00,14.98336893,0.000336,69.9993,330.4798,274.716,85.3615,-0.00026298,-3.23e-05,0.0,0 STARLINK-5529,1 56495U 23064AZ  24138.89445027 -.00003230  00000-0 -26298-3 0  9991,2 56495  69.9993 330.4798 0003360 274.7160  85.3615 14.98336893 57250,6950.172,96.107,574.372,569.701,0.0
56495.0,STARLINK-5529,PAYLOAD,2024-05-18 05:28:40,14.98345269,0.0003295,70.0003,329.6383,279.214,80.8647,-0.00017646,-2.199e-05,0.0,0 STARLINK-5529,1 56495U 23064AZ  24139.22824144 -.00002199  00000-0 -17646-3 0  9990,2 56495  70.0003 329.6383 0003295 279.2140  80.8647 14.98345269 57667,6950.146,96.106,574.301,569.721,0.0
